NORAD_CAT_ID,OBJECT_NAME,OBJECT_TYPE,EPOCH,MEAN_MOTION,ECCENTRICITY,INCLINATION,RA_OF_ASC_NODE,ARG_OF_PERICENTER,MEAN_ANOMALY,BSTAR,MEAN_MOTION_DOT,MEAN_MOTION_DDOT,TLE_LINE0,TLE_LINE1,TLE_LINE2,SEMIMAJOR_AXIS,PERIOD,APOGEE,PERIGEE,DECAYED
52694.0,STARLINK-4072,PAYLOAD,2022-09-24 02:46:53,15.08828396,0.0001768,53.2202,52.0242,56.3527,303.7634,4.3922e-05,4.11e-06,0.0,0 STARLINK-4072,1 52694U 22053AQ  22267.11590235  .00000411  00000-0  43922-4 0  9993,2 52694  53.2202  52.0242 0001768  56.3527 303.7634 15.08828396 20140,6917.916,95.438,541.004,538.558,0.0
52694.0,STARLINK-4072,PAYLOAD,2022-09-24 12:19:13,15.08786593,0.0002214,53.2195,50.2377,75.848,284.2758,0.00075676,0.00011759,0.0,0 STARLINK-4072,1 52694U 22053AQ  22267.51334777  .00011759  00000-0  75676-3 0  9991,2 52694  53.2195  50.2377 0002214  75.8480 284.2758 15.08786593 20604,6918.044,95.441,541.44,538.377,0.0
52694.0,STARLINK-4072,PAYLOAD,2022-09-24 17:05:21,15.08841327,0.0001802,53.2196,49.3463,52.0727,308.0427,0.00013205,1.814e-05,0.0,0 STARLINK-4072,1 52694U 22053AQ  22267.71205562  .00001814  00000-0  13205-3 0  9993,2 52694  53.2196  49.3463 0001802  52.0727 308.0427 15.08841327 20631,6917.876,95.437,540.988,538.495,0.0
52694.0,STARLINK-4072,PAYLOAD,2022-09-25 12:09:59,15.08835562,0.000183,53.2196,45.7768,50.8031,309.3124,0.00021657,3.16e-05,0.0,0 STARLINK-4072,1 52694U 22053AQ  22268.50694006  .00003160  00000-0  21657-3 0  9992,2 52694  53.2196  45.7768 0001830  50.8031 309.3124 15.08835562 20759,6917.894,95.438,541.025,538.493,0.0
52694.0,STARLINK-4072,PAYLOAD,2022-09-25 16:56:09,15.08827219,0.0001691,53.2204,44.8838,49.4214,310.6925,9.8723e-05,1.283e-05,0.0,0 STARLINK-4072,1 52694U 22053AQ  22268.70566909  .00001283  00000-0  98723-4 0  9997,2 52694  53.2204  44.8838 0001691  49.4214 310.6925 15.08827219 20786,6917.919,95.438,540.9540000000002,538.615,0.0
52694.0,STARLINK-4072,PAYLOAD,2022-09-26 12:00:46,15.08841119,0.000164,53.2204,41.3161,52.0812,308.0328,6.094e-05,6.82e-06,0.0,0 STARLINK-4072,1 52694U 22053AQ  22269.50054306  .00000682  00000-0  60940-4 0  9991,2 52694  53.2204  41.3161 0001640  52.0812 308.0328 15.08841119 20902,6917.877,95.437,540.877,538.607,0.0
52694.0,STARLINK-4072,PAYLOAD,2022-09-26 15:11:33,15.08830086,0.0001309,53.2198,40.7224,45.8596,314.2504,0.00026082,3.864e-05,0.0,0 STARLINK-4072,1 52694U 22053AQ  22269.63302562  .00003864  00000-0  26082-3 0  9998,2 52694  53.2198  40.7224 0001309  45.8596 314.2504 15.08830086 20926,6917.911,95.438,540.681,538.87,0.0
52694.0,STARLINK-4072,PAYLOAD,2022-09-27 11:51:33,15.08842225,0.0001593,53.22,36.857,50.8752,309.2381,0.00016101,2.276e-05,0.0,0 STARLINK-4072,1 52694U 22053AQ  22270.49413676  .00002276  00000-0  16101-3 0  9990,2 52694  53.2200  36.8570 0001593  50.8752 309.2381 15.08842225 20650,6917.874,95.437,540.841,538.637,0.0
52694.0,STARLINK-4072,PAYLOAD,2022-09-27 15:02:19,15.08844411,0.0001613,53.2198,36.262,52.205,307.9089,0.00020131,2.918e-05,0.0,0 STARLINK-4072,1 52694U 22053AQ  22270.62661463  .00002918  00000-0  20131-3 0  9995,2 52694  53.2198  36.2620 0001613  52.2050 307.9089 15.08844411 21072,6917.8669999999975,95.437,540.8480000000002,538.616,0.0
52694.0,STARLINK-4072,PAYLOAD,2022-09-28 11:42:19,15.08855879,0.0001621,53.22,32.3971,48.7253,311.3878,0.0001794,2.569e-05,0.0,0 STARLINK-4072,1 52694U 22053AQ  22271.48772497  .00002569  00000-0  17940-3 0  9996,2 52694  53.2200  32.3971 0001621  48.7253 311.3878 15.08855879 20801,6917.831999999999,95.437,540.818,538.575,0.0
52694.0,STARLINK-4072,PAYLOAD,2022-09-28 14:53:05,15.08856901,0.0001626,53.22,31.8024,48.8387,311.2745,0.00018639,2.681e-05,0.0,0 STARLINK-4072,1 52694U 22053AQ  22271.62020351  .00002681  00000-0  18639-3 0  9998,2 52694  53.2200  31.8024 0001626  48.8387 311.2745 15.08856901 21224,6917.829000000002,95.436,540.819,538.569,0.0
52694.0,STARLINK-4072,PAYLOAD,2022-09-29 11:33:07,15.08841695,0.00016,53.2187,27.936,48.2672,311.8457,7.0695000000000015e-06,-1.76e-06,0.0,0 STARLINK-4072,1 52694U 22053AQ  22272.48133323 -.00000176  00000-0  70695-5 0  9997,2 52694  53.2187  27.9360 0001600  48.2672 311.8457 15.08841695 20959,6917.875,95.437,540.847,538.633,0.0
52694.0,STARLINK-4072,PAYLOAD,2022-09-29 16:19:16,15.08841971,0.0001716,53.219,27.0451,39.1937,320.9179,2.0501e-05,3.8e-07,0.0,0 STARLINK-4072,1 52694U 22053AQ  22272.68005218  .00000038  00000-0  20501-4 0  9996,2 52694  53.2190  27.0451 0001716  39.1937 320.9179 15.08841971 21383,6917.874,95.437,540.9259999999998,538.552,0.0
52694.0,STARLINK-4072,PAYLOAD,2022-09-30 00:16:11,15.08856513,0.0001527,53.2191,25.5573,40.324,319.7865,-5.6864e-05,-1.193e-05,0.0,0 STARLINK-4072,1 52694U 22053AQ  22273.01124195 -.00001193  00000-0 -56864-4 0  9996,2 52694  53.2191  25.5573 0001527  40.3240 319.7865 15.08856513 21031,6917.83,95.437,540.751,538.639,0.0
52694.0,STARLINK-4072,PAYLOAD,2022-09-30 11:23:54,15.08834338,0.0001618,53.2197,23.4772,41.7631,318.3485,-0.00011065,-2.048e-05,0.0,0 STARLINK-4072,1 52694U 22053AQ  22273.47493817 -.00002048  00000-0 -11065-3 0  9999,2 52694  53.2197  23.4772 0001618  41.7631 318.3485 15.08834338 21501,6917.898,95.438,540.882,538.643,0.0
52694.0,STARLINK-4072,PAYLOAD,2022-09-30 16:10:03,15.08865451,0.0001543,53.2195,22.5839,63.9424,296.1727,-0.00052572,-8.651e-05,0.0,0 STARLINK-4072,1 52694U 22053AQ  22273.67364867 -.00008651  00000-0 -52572-3 0  9997,2 52694  53.2195  22.5839 0001543  63.9424 296.1727 15.08865451 21137,6917.803000000001,95.436,540.735,538.6,0.0
52694.0,STARLINK-4072,PAYLOAD,2022-09-30 17:45:26,15.0884618,0.0001631,53.2199,22.2869,59.2405,300.8748,-0.00025074,-4.277e-05,0.0,0 STARLINK-4072,1 52694U 22053AQ  22273.73989511 -.00004277  00000-0 -25074-3 0  9990,2 52694  53.2199  22.2869 0001631  59.2405 300.8748 15.08846180 21545,6917.861,95.437,540.855,538.5980000000002,0.0
52694.0,STARLINK-4072,PAYLOAD,2022-10-01 00:06:59,15.0883689,0.0001696,53.2208,21.09800000000001,49.9568,310.1572,8.089100000000001e-05,9.99e-06,0.0,0 STARLINK-4072,1 52694U 22053AQ  22274.00485391  .00000999  00000-0  80891-4 0  9992,2 52694  53.2208  21.0980 0001696  49.9568 310.1572 15.08836890 21180,6917.89,95.438,540.928,538.582,0.0
52694.0,STARLINK-4072,PAYLOAD,2022-10-01 12:50:03,15.08851311,0.0001761,53.2206,18.7191,61.74800000000001,298.369,0.00019867,2.876e-05,0.0,0 STARLINK-4072,1 52694U 22053AQ  22274.53476333  .00002876  00000-0  19867-3 0  9996,2 52694  53.2206  18.7191 0001761  61.7480 298.3690 15.08851311 21265,6917.846,95.437,540.929,538.493,0.0
52694.0,STARLINK-4072,PAYLOAD,2022-10-01 16:00:49,15.08855305,0.0001781999999999,53.2198,18.1245,47.2102,312.9039,0.00034369,5.188e-05,0.0,0 STARLINK-4072,1 52694U 22053AQ  22274.66724446  .00005188  00000-0  34369-3 0  9994,2 52694  53.2198  18.1245 0001782  47.2102 312.9039 15.08855305 21685,6917.834,95.437,540.931,538.466,0.0
52694.0,STARLINK-4072,PAYLOAD,2022-10-02 07:54:42,15.08831311,0.0001747,53.2196,15.1512,47.0029,313.1109,-1.6368e-05,-5.48e-06,0.0,0 STARLINK-4072,1 52694U 22053AQ  22275.32965490 -.00000548  00000-0 -16368-4 0  9991,2 52694  53.2196  15.1512 0001747  47.0029 313.1109 15.08831311 21383,6917.906999999997,95.438,540.981,538.563,0.0
52694.0,STARLINK-4072,PAYLOAD,2022-10-02 12:40:51,15.08832167,0.0001841999999999,53.2195,14.2588,49.5621,310.5532,2.0722e-05,4.2e-07,0.0,0 STARLINK-4072,1 52694U 22053AQ  22275.52837595  .00000042  00000-0  20722-4 0  9993,2 52694  53.2195  14.2588 0001842  49.5621 310.5532 15.08832167 21815,6917.904,95.438,541.044,538.495,0.0
52694.0,STARLINK-4072,PAYLOAD,2022-10-02 14:16:14,15.08836248,0.000188,53.2195,13.9618,48.5467,311.5686,0.00010658,1.408e-05,0.0,0 STARLINK-4072,1 52694U 22053AQ  22275.59461565  .00001408  00000-0  10658-3 0  9993,2 52694  53.2195  13.9618 0001880  48.5467 311.5686 15.08836248 21820,6917.892,95.438,541.057,538.456,0.0
52694.0,STARLINK-4072,PAYLOAD,2022-10-02 23:48:33,15.08847854,0.000185,53.2189,12.1778,48.4155,311.6996,0.00047254,7.242e-05,0.0,0 STARLINK-4072,1 52694U 22053AQ  22275.99205189  .00007242  00000-0  47254-3 0  9999,2 52694  53.2189  12.1778 0001850  48.4155 311.6996 15.08847854 21483,6917.856,95.437,541.001,538.442,0.0
52694.0,STARLINK-4072,PAYLOAD,2022-10-03 10:56:14,15.08870785,0.0001857,53.2185,10.096,48.0299,312.0851,0.0015538,0.00024548,0.0,0 STARLINK-4072,1 52694U 22053AQ  22276.45572769  .00024548  00000-0  15538-2 0  9999,2 52694  53.2185  10.0960 0001857  48.0299 312.0851 15.08870785 21553,6917.786,95.436,540.936,538.367,0.0
52694.0,STARLINK-4072,PAYLOAD,2022-10-03 12:31:38,15.08862837,0.0001975,53.2199,9.7998,44.1795,315.9355,0.0010843,0.00017022,0.0,0 STARLINK-4072,1 52694U 22053AQ  22276.52196813  .00017022  00000-0  10843-2 0  9992,2 52694  53.2199   9.7998 0001975  44.1795 315.9355 15.08862837 21968,6917.811,95.436,541.0419999999998,538.309,0.0
52694.0,STARLINK-4072,PAYLOAD,2022-10-03 15:42:24,15.08861381,0.0001675999999999,53.2186,9.204,48.0031,312.1104,0.00093801,0.00014681,0.0,0 STARLINK-4072,1 52694U 22053AQ  22276.65444598  .00014681  00000-0  93801-3 0  9996,2 52694  53.2186   9.2040 0001676  48.0031 312.1104 15.08861381 21583,6917.815,95.436,540.839,538.521,0.0
52694.0,STARLINK-4072,PAYLOAD,2022-10-03 17:17:47,15.08866601,0.0001699,53.2187,8.9068,45.731,314.3821,0.0010396,0.00016308,0.0,0 STARLINK-4072,1 52694U 22053AQ  22276.72068444  .00016308  00000-0  10396-2 0  9991,2 52694  53.2187   8.9068 0001699  45.7310 314.3821 15.08866601 21994,6917.799,95.436,540.839,538.489,0.0
52694.0,STARLINK-4072,PAYLOAD,2022-10-04 12:22:24,15.08862674,0.0001865,53.2189,5.3384,45.9256,314.189,0.0006255,9.687e-05,0.0,0 STARLINK-4072,1 52694U 22053AQ  22277.51555853  .00009687  00000-0  62550-3 0  9996,2 52694  53.2189   5.3384 0001865  45.9256 314.1890 15.08862674 21714,6917.811,95.436,540.966,538.386,0.0
